DMSP 5D-3 F16 (USA 172) 
1 28054U 03048A   26183.74051692  .00000005  00000+0  26067-4 0  9997
2 28054  98.9886 207.6714 0008195 101.5582  30.2247 14.14484355171681
METEOSAT-9 (MSG-2)      
1 28912U 05049B   26183.76303862  .00000130  00000+0  00000+0 0  9997
2 28912   9.3943  54.0128 0002567 359.4901 187.7563  1.00267373  7152
DMSP 5D-3 F17 (USA 191) 
1 29522U 06050A   26183.72616954  .00000040  00000+0  42834-4 0  9999
2 29522  98.7380 189.9783 0010483  18.2426 341.9121 14.14995033 14624
FENGYUN 3A              
1 32958U 08026A   26183.83562919  .00000090  00000+0  63361-4 0  9997
2 32958  98.6885 124.3762 0009882  83.5691 276.6610 14.19574446937627
GOES 14                 
1 35491U 09033A   26183.76438565 -.00000329  00000+0  00000+0 0  9994
2 35491   1.7278  82.8660 0002230  26.4183 219.3743  1.00105344  6744
DMSP 5D-3 F18 (USA 210) 
1 35951U 09057A   26183.76926764  .00000282  00000+0  16904-3 0  9995
2 35951  98.9045 164.5050 0010489 201.2830 158.7908 14.14905612861791
EWS-G2 (GOES 15)        
1 36411U 10008A   26183.77836772  .00000031  00000+0  00000+0 0  9993
2 36411   1.3180  82.6370 0005372  46.1849 135.6761  1.00268387 59799
COMS 1                  
1 36744U 10032A   26183.73581844 -.00000089  00000+0  00000+0 0  9996
2 36744   4.8426  75.1736 0011777  13.9183 108.0967  0.99169036 51243
FENGYUN 3B              
1 37214U 10059A   26183.78965323 -.00000140  00000+0 -48917-4 0  9994
2 37214  98.9609 229.8699 0022726 140.2493 273.2816 14.14843450809636
SUOMI NPP               
1 37849U 11061A   26183.77697588  .00000079  00000+0  58434-4 0  9990
2 37849  98.7954 124.5467 0000690 308.9130  51.1984 14.19520569760657
METEOSAT-10 (MSG-3)     
1 38552U 12035B   26183.29748566  .00000001  00000+0  00000+0 0  9990
2 38552   4.7052  60.9470 0001613  15.2569 311.3560  1.00269475 51007
METOP-B                 
1 38771U 12049A   26183.74602462  .00000131  00000+0  79542-4 0  9998
2 38771  98.6496 234.9343 0001306 327.8556  32.2542 14.21443664715471
INSAT-3D                
1 39216U 13038B   26183.69170552 -.00000330  00000+0  00000+0 0  9996
2 39216   1.9639  82.3587 0001065  14.2918 202.5834  1.00268803 47239
FENGYUN 3C              
1 39260U 13052A   26183.80398275  .00000102  00000+0  72980-4 0  9995
2 39260  98.4995 156.9623 0014301 343.3047  16.7655 14.15758644660772
METEOR-M 2              
1 40069U 14037A   26183.77216598  .00000191  00000+0  10646-3 0  9999
2 40069  98.5120 158.9591 0005919   4.1216 356.0010 14.21466066621530
HIMAWARI-8              
1 40267U 14060A   26183.75305588 -.00000265  00000+0  00000+0 0  9993
2 40267   0.0090 350.5913 0001053 117.0732 224.9023  1.00271911 42916
FENGYUN 2G              
1 40367U 14090A   26183.75349958 -.00000293  00000+0  00000+0 0  9997
2 40367   5.6765  72.6321 0003600 150.3525  68.6267  1.00266657 42152
METEOSAT-11 (MSG-4)     
1 40732U 15034A   26183.72673932  .00000071  00000+0  00000+0 0  9994
2 40732   3.2394  71.0131 0002236 349.0912 131.6062  1.00267949  7377
ELEKTRO-L 2             
1 41105U 15074A   26182.93811038 -.00000111  00000+0  00000+0 0  9992
2 41105   6.7296  70.3426 0000516 273.6365 259.1662  1.00271077 38657
SENTINEL-3A             
1 41335U 16011A   26183.78540397  .00000136  00000+0  74130-4 0  9996
2 41335  98.6243 250.9446 0001424  94.5216 265.6127 14.26737057540288
INSAT-3DR               
1 41752U 16054A   26183.45463633 -.00000066  00000+0  00000+0 0  9990
2 41752   0.1421  85.9447 0010094 186.2693 245.9301  1.00272241 35972
HIMAWARI-9              
1 41836U 16064A   26183.69547149 -.00000265  00000+0  00000+0 0  9996
2 41836   0.0302 267.9360 0001438 225.4185 178.4790  1.00268231 35361
GOES 16                 
1 41866U 16071A   26183.70436984 -.00000080  00000+0  00000+0 0  9998
2 41866   0.3771  85.5912 0000562  33.2401 310.7945  1.00272031 35251
FENGYUN 4A              
1 41882U 16077A   26183.82775139 -.00000347  00000+0  00000+0 0  9999
2 41882   2.3604  80.1191 0007921 158.0007 104.4703  1.00275999 35087
CYGFM05                 
1 41884U 16078A   26183.63181250  .00025116  00000+0  33165-3 0  9998
2 41884  34.9557 158.2652 0008068 285.0788  74.9044 15.57329564531160
CYGFM04                 
1 41885U 16078B   26183.23405422  .00034998  00000+0  38060-3 0  9992
2 41885  34.9318 127.8224 0006684 317.2673  42.7533 15.62360416531350
CYGFM02                 
1 41886U 16078C   26183.52412733  .00037113  00000+0  35590-3 0  9995
2 41886  34.9400 119.9613 0007471 322.8744  37.1466 15.65519305531576
CYGFM01                 
1 41887U 16078D   26183.61367890  .00025659  00000+0  32997-3 0  9999
2 41887  34.9387 159.3160 0007978 279.6825  80.2998 15.58029354531118
CYGFM08                 
1 41888U 16078E   26183.29040917  .00031616  00000+0  36529-3 0  9997
2 41888  34.9423 140.6357 0008715 306.3717  53.6204 15.60797506531331
CYGFM07                 
1 41890U 16078G   26183.24860683  .00031773  00000+0  36586-3 0  9992
2 41890  34.9439 129.2429 0007032 318.0003  42.0183 15.60901001531350
CYGFM03                 
1 41891U 16078H   26183.53947380  .00027905  00000+0  32150-3 0  9990
2 41891  34.9396 129.2367 0006961 308.1900  51.8198 15.60905587531379
FENGYUN 3D              
1 43010U 17072A   26183.79274682 -.00000302  00000+0 -12096-3 0  9997
2 43010  99.0132 158.4976 0002156  37.0736 323.0588 14.19740968447209
NOAA 20 (JPSS-1)        
1 43013U 17073A   26183.79026882  .00000076  00000+0  56951-4 0  9993
2 43013  98.7772 123.1143 0000882 132.4848 227.6402 14.19514585446680
GOES 17                 
1 43226U 18022A   26183.63617994 -.00000172  00000+0  00000+0 0  9994
2 43226   0.9741  85.4682 0000734  41.6240 293.1097  1.00271770 30575
SENTINEL-3B             
1 43437U 18039A   26183.47802154  .00000140  00000+0  76068-4 0  9998
2 43437  98.6244 250.7906 0000853 115.3560 244.7708 14.26739163426301
FENGYUN 2H              
1 43491U 18050A   26183.82830072 -.00000119  00000+0  00000+0 0  9995
2 43491   3.0698  78.8967 0001785 121.3939  98.0538  1.00269442 29599
METOP-C                 
1 43689U 18087A   26183.69402882  .00000136  00000+0  81975-4 0  9996
2 43689  98.6637 243.0137 0002154 109.6309 250.5101 14.21516385397033
GEO-KOMPSAT-2A          
1 43823U 18100A   26183.76307903 -.00000333  00000+0  00000+0 0  9993
2 43823   0.0452 170.3409 0002258 284.1162 229.2952  1.00268776 27780
METEOR-M2 2             
1 44387U 19038A   26183.76905166 -.00000211  00000+0 -71223-4 0  9991
2 44387  98.9148 171.2847 0001409  25.7364 334.3884 14.24369221363513
ARKTIKA-M 1             
1 47719U 21016A   26180.95192977 -.00000281  00000+0  00000+0 0  9994
2 47719  63.2520  55.7907 7292817 269.9910  14.5481  2.00617895 39040
FENGYUN 3E              
1 49008U 21062A   26183.77488187  .00000123  00000+0  78678-4 0  9997
2 49008  98.7490 187.0089 0002665  60.9337 299.2106 14.19905723258791
GOES 18                 
1 51850U 22021A   26183.69804314  .00000107  00000+0  00000+0 0  9997
2 51850   0.0153 195.2020 0000551 306.4734 253.3476  1.00271499  6747
NOAA 21 (JPSS-2)        
1 54234U 22150A   26183.75228161  .00000060  00000+0  49275-4 0  9996
2 54234  98.7060 122.2799 0002463 126.6308 233.5095 14.19539311188756
METEOSAT-12 (MTG-I1)    
1 54743U 22170C   26183.72509264  .00000004  00000+0  00000+0 0  9992
2 54743   0.7551  25.3200 0003602  74.6137  81.6181  1.00276285 13138
TIANMU-1 03             
1 55973U 23039A   26183.76324891  .00016267  00000+0  31575-3 0  9991
2 55973  97.5236 358.3466 0003621  59.5335 300.6272 15.47729369183241
TIANMU-1 04             
1 55974U 23039B   26183.74663846  .00016126  00000+0  30643-3 0  9995
2 55974  97.5174 357.4844 0004051  53.8233 306.3392 15.48343454183250
TIANMU-1 05             
1 55975U 23039C   26183.74477100  .00015672  00000+0  30508-3 0  9997
2 55975  97.5219 357.9366 0003727  77.2373 282.9293 15.47654611183224
TIANMU-1 06             
1 55976U 23039D   26183.75100314  .00016186  00000+0  30864-3 0  9995
2 55976  97.5225 358.5947 0003956  72.1858 287.9823 15.48242987183257
FENGYUN 3G              
1 56232U 23055A   26183.80645860  .00022887  00000+0  36147-3 0  9990
2 56232  49.9922 265.5037 0007319   1.7685 358.3307 15.53321812182438
METEOR-M2 3             
1 57166U 23091A   26183.76695706 -.00000003  00000+0  17380-4 0  9992
2 57166  98.6080 238.4260 0005013 118.1282 242.0404 14.24048058156739
TIANMU-1 07             
1 57399U 23101A   26183.73226784  .00007059  00000+0  24566-3 0  9995
2 57399  97.2580 234.0445 0004264  90.1206 270.0524 15.29989683164025
TIANMU-1 08             
1 57400U 23101B   26183.76426918  .00007062  00000+0  24567-3 0  9997
2 57400  97.2569 233.8442 0005488  77.8957 282.2899 15.29994382164025
TIANMU-1 09             
1 57401U 23101C   26183.74734522  .00007300  00000+0  25359-3 0  9994
2 57401  97.2526 233.2354 0004889  92.5056 267.6745 15.30030861164025
TIANMU-1 10             
1 57402U 23101D   26183.78067541  .00006911  00000+0  24037-3 0  9998
2 57402  97.2606 234.3344 0006341  86.4825 273.7141 15.30003640164020
FENGYUN 3F              
1 57490U 23111A   26183.75842947  .00000059  00000+0  48024-4 0  9994
2 57490  98.6831 253.4767 0001482  82.6304 277.5041 14.19941741151075
ARKTIKA-M 2             
1 58584U 23198A   26180.72239164  .00000148  00000+0  00000+0 0  9995
2 58584  63.2199 152.9641 6905877 267.3845  18.7575  2.00610643 18573
TIANMU-1 11             
1 58645U 23205A   26183.77998822  .00006096  00000+0  23156-3 0  9992
2 58645  97.3438 205.0930 0007206 317.6556  42.4126 15.27155963139906
TIANMU-1 12             
1 58646U 23205B   26183.42334862  .00006720  00000+0  25584-3 0  9994
2 58646  97.3426 204.4940 0005309 296.9950  63.0746 15.27051163139833
TIANMU-1 13             
1 58647U 23205C   26183.78438287  .00006265  00000+0  23927-3 0  9993
2 58647  97.3454 205.1249 0004972 269.2694  90.7975 15.26976980139886
